{"type": "FeatureCollection", "features": [ {"type": "Feature", "properties": {"norad_id": 30771, "name": "FENGYUN 1C DEB", "group": "fengyun-1c-debris", "lat": 10.221199115659857, "lon": -28.111464190388116, "alt_km": 752.6801855003796, "timestamp": "2025-12-23T18:59:32.246023+00:00", "meta": {"OBJECT_NAME": "FENGYUN 1C DEB", "OBJECT_ID": "1999-025AUH", "EPOCH": "2025-12-22T11:19:57.659232", "MEAN_MOTION": 14.43315606, "ECCENTRICITY": 0.0022325, "INCLINATION": 98.9061, "RA_OF_ASC_NODE": 332.1302, "ARG_OF_PERICENTER": 270.9076, "MEAN_ANOMALY": 88.9555, "EPHEMERIS_TYPE": 0, "CLASSIFICATION_TYPE": "U", "NORAD_CAT_ID": 30771, "ELEMENT_SET_NO": 999, "REV_AT_EPOCH": 97204, "BSTAR": 0.0025187478, "MEAN_MOTION_DOT": 8.476e-05, "MEAN_MOTION_DDOT": 0}, "tle": {"line1": "1 30771U 99025AUH 25356.47219513  .00008476  00000+0  25187-2 0  9995", "line2": "2 30771  98.9061 332.1302 0022325 270.9076  88.9555 14.43315606972047"}}, "geometry": {"type": "Point", "coordinates": [-28.111464190388116, 10.221199115659857]}}, {"type": "Feature", "properties": {"norad_id": 30802, "name": "FENGYUN 1C DEB", "group": "fengyun-1c-debris", "lat": 69.03682804175642, "lon": 60.83768435569967, "alt_km": 770.8539927798402, "timestamp": "2025-12-23T18:59:32.246032+00:00", "meta": {"OBJECT_NAME": "FENGYUN 1C DEB", "OBJECT_ID": "1999-025AUL", "EPOCH": "2025-12-23T05:30:23.594400", "MEAN_MOTION": 14.32538112, "ECCENTRICITY": 0.00175614, "INCLINATION": 98.8365, "RA_OF_ASC_NODE": 84.2208, "ARG_OF_PERICENTER": 9.213, "MEAN_ANOMALY": 45.3744, "EPHEMERIS_TYPE": 0, "CLASSIFICATION_TYPE": "U", "NORAD_CAT_ID": 30802, "ELEMENT_SET_NO": 999, "REV_AT_EPOCH": 97353, "BSTAR": 0.0016778974, "MEAN_MOTION_DOT": 4.515e-05, "MEAN_MOTION_DDOT": 0}, "tle": {"line1": "1 30802U 99025AUL 25357.22943975  .00004515  00000+0  16779-2 0  9997", "line2": "2 30802  98.8365  84.2208 0017561   9.2130  45.3744 14.32538112973537"}}, "geometry": {"type": "Point", "coordinates": [60.83768435569967, 69.03682804175642]}}, {"type": "Feature", "properties": {"norad_id": 30803, "name": "FENGYUN 1C DEB", "group": "fengyun-1c-debris", "lat": -80.28360505651699, "lon": 103.3230411434971, "alt_km": 877.7922510443032, "timestamp": "2025-12-23T18:59:32.246041+00:00", "meta": {"OBJECT_NAME": "FENGYUN 1C DEB", "OBJECT_ID": "1999-025AUM", "EPOCH": "2025-12-23T00:47:11.482656", "MEAN_MOTION": 14.11292129, "ECCENTRICITY": 0.01076426, "INCLINATION": 99.2448, "RA_OF_ASC_NODE": 30.5174, "ARG_OF_PERICENTER": 172.9934, "MEAN_ANOMALY": 206.8565, "EPHEMERIS_TYPE": 0, "CLASSIFICATION_TYPE": "U", "NORAD_CAT_ID": 30803, "ELEMENT_SET_NO": 999, "REV_AT_EPOCH": 96144, "BSTAR": 0.0013219036, "MEAN_MOTION_DOT": 2.475e-05, "MEAN_MOTION_DDOT": 0}, "tle": {"line1": "1 30803U 99025AUM 25357.03277179  .00002475  00000+0  13219-2 0  9992", "line2": "2 30803  99.2448  30.5174 0107642 172.9934 206.8565 14.11292129961445"}}, "geometry": {"type": "Point", "coordinates": [103.3230411434971, -80.28360505651699]}}, {"type": "Feature", "properties": {"norad_id": 30804, "name": "FENGYUN 1C DEB", "group": "fengyun-1c-debris", "lat": -44.24272770338498, "lon": -124.84236198028816, "alt_km": 665.1198126614563, "timestamp": "2025-12-23T18:59:32.246051+00:00", "meta": {"OBJECT_NAME": "FENGYUN 1C DEB", "OBJECT_ID": "1999-025AUN", "EPOCH": "2025-12-23T03:16:16.352832", "MEAN_MOTION": 14.54657813, "ECCENTRICITY": 0.01859051, "INCLINATION": 98.8934, "RA_OF_ASC_NODE": 63.2326, "ARG_OF_PERICENTER": 159.0812, "MEAN_ANOMALY": 235.4565, "EPHEMERIS_TYPE": 0, "CLASSIFICATION_TYPE": "U", "NORAD_CAT_ID": 30804, "ELEMENT_SET_NO": 999, "REV_AT_EPOCH": 99628, "BSTAR": 0.00047866706, "MEAN_MOTION_DOT": 2.518e-05, "MEAN_MOTION_DDOT": 0}, "tle": {"line1": "1 30804U 99025AUN 25357.13630038  .00002518  00000+0  47867-3 0  9996", "line2": "2 30804  98.8934  63.2326 0185905 159.0812 235.4565 14.54657813996282"}}, "geometry": {"type": "Point", "coordinates": [-124.84236198028816, -44.24272770338498]}}, {"type": "Feature", "properties": {"norad_id": 30805, "name": "FENGYUN 1C DEB", "group": "fengyun-1c-debris", "lat": 62.49948573125455, "lon": -122.54197814750081, "alt_km": 914.7468086596118, "timestamp": "2025-12-23T18:59:32.246062+00:00", "meta": {"OBJECT_NAME": "FENGYUN 1C DEB", "OBJECT_ID": "1999-025AUP", "EPOCH": "2025-12-23T01:38:09.081888", "MEAN_MOTION": 14.02923325, "ECCENTRICITY": 0.00705433, "INCLINATION": 98.8196, "RA_OF_ASC_NODE": 39.4057, "ARG_OF_PERICENTER": 254.9478, "MEAN_ANOMALY": 171.2659, "EPHEMERIS_TYPE": 0, "CLASSIFICATION_TYPE": "U", "NORAD_CAT_ID": 30805, "ELEMENT_SET_NO": 999, "REV_AT_EPOCH": 96105, "BSTAR": 0.00096262569, "MEAN_MOTION_DOT": 1.482e-05, "MEAN_MOTION_DDOT": 0}, "tle": {"line1": "1 30805U 99025AUP 25357.06816067  .00001482  00000+0  96263-3 0  9990", "line2": "2 30805  98.8196  39.4057 0070543 254.9478 171.2659 14.02923325961058"}}, "geometry": {"type": "Point", "coordinates": [-122.54197814750081, 62.49948573125455]}}, {"type": "Feature", "properties": {"norad_id": 30806, "name": "FENGYUN 1C DEB", "group": "fengyun-1c-debris", "lat": -76.05822497371814, "lon": 63.53217171412729, "alt_km": 1202.9796071025248, "timestamp": "2025-12-23T18:59:32.246071+00:00", "meta": {"OBJECT_NAME": "FENGYUN 1C DEB", "OBJECT_ID": "1999-025AUQ", "EPOCH": "2025-12-22T21:12:00.277920", "MEAN_MOTION": 13.70435265, "ECCENTRICITY": 0.02679693, "INCLINATION": 99.035, "RA_OF_ASC_NODE": 22.8176, "ARG_OF_PERICENTER": 103.7502, "MEAN_ANOMALY": 19.5556, "EPHEMERIS_TYPE": 0, "CLASSIFICATION_TYPE": "U", "NORAD_CAT_ID": 30806, "ELEMENT_SET_NO": 999, "REV_AT_EPOCH": 93834, "BSTAR": 0.00071835123, "MEAN_MOTION_DOT": 7.8e-06, "MEAN_MOTION_DDOT": 0}, "tle": {"line1": "1 30806U 99025AUQ 25356.88333655  .00000780  00000+0  71835-3 0  9995", "line2": "2 30806  99.0350  22.8176 0267969 103.7502  19.5556 13.70435265938342"}}, "geometry": {"type": "Point", "coordinates": [63.53217171412729, -76.05822497371814]}}, {"type": "Feature", "properties": {"norad_id": 30809, "name": "FENGYUN 1C DEB", "group": "fengyun-1c-debris", "lat": -81.2025608902257, "lon": 178.45369650137718, "alt_km": 824.9126433493884, "timestamp": "2025-12-23T18:59:32.246080+00:00", "meta": {"OBJECT_NAME": "FENGYUN 1C DEB", "OBJECT_ID": "1999-025AUT", "EPOCH": "2025-12-23T04:17:49.751520", "MEAN_MOTION": 14.29314737, "ECCENTRICITY": 0.00521844, "INCLINATION": 98.7888, "RA_OF_ASC_NODE": 86.3085, "ARG_OF_PERICENTER": 142.2717, "MEAN_ANOMALY": 218.2142, "EPHEMERIS_TYPE": 0, "CLASSIFICATION_TYPE": "U", "NORAD_CAT_ID": 30809, "ELEMENT_SET_NO": 999, "REV_AT_EPOCH": 97236, "BSTAR": 0.0017567777, "MEAN_MOTION_DOT": 4.495e-05, "MEAN_MOTION_DDOT": 0}, "tle": {"line1": "1 30809U 99025AUT 25357.17904805  .00004495  00000+0  17568-2 0  9991", "line2": "2 30809  98.7888  86.3085 0052184 142.2717 218.2142 14.29314737972362"}}, "geometry": {"type": "Point", "coordinates": [178.45369650137718, -81.2025608902257]}}, {"type": "Feature", "properties": {"norad_id": 30810, "name": "FENGYUN 1C DEB", "group": "fengyun-1c-debris", "lat": 19.89773636704819, "lon": 166.0668225005506, "alt_km": 748.779635986888, "timestamp": "2025-12-23T18:59:32.246088+00:00", "meta": {"OBJECT_NAME": "FENGYUN 1C DEB", "OBJECT_ID": "1999-025AUU", "EPOCH": "2025-12-23T03:30:35.133408", "MEAN_MOTION": 14.04241497, "ECCENTRICITY": 0.01798853, "INCLINATION": 98.6617, "RA_OF_ASC_NODE": 168.6141, "ARG_OF_PERICENTER": 25.4923, "MEAN_ANOMALY": 335.4984, "EPHEMERIS_TYPE": 0, "CLASSIFICATION_TYPE": "U", "NORAD_CAT_ID": 30810, "ELEMENT_SET_NO": 999, "REV_AT_EPOCH": 94529, "BSTAR": 0.0028608678, "MEAN_MOTION_DOT": 5.209e-05, "MEAN_MOTION_DDOT": 0}, "tle": {"line1": "1 30810U 99025AUU 25357.14623997  .00005209  00000+0  28609-2 0  9992", "line2": "2 30810  98.6617 168.6141 0179885  25.4923 335.4984 14.04241497945292"}}, "geometry": {"type": "Point", "coordinates": [166.0668225005506, 19.89773636704819]}}, {"type": "Feature", "properties": {"norad_id": 30811, "name": "FENGYUN 1C DEB", "group": "fengyun-1c-debris", "lat": 64.41725149436611, "lon": 17.226258613160415, "alt_km": 883.3160914797709, "timestamp": "2025-12-23T18:59:32.246099+00:00", "meta": {"OBJECT_NAME": "FENGYUN 1C DEB", "OBJECT_ID": "1999-025AUV", "EPOCH": "2025-12-22T02:07:59.436768", "MEAN_MOTION": 13.61870689, "ECCENTRICITY": 0.02779782, "INCLINATION": 98.7814, "RA_OF_ASC_NODE": 34.5277, "ARG_OF_PERICENTER": 21.7209, "MEAN_ANOMALY": 339.5458, "EPHEMERIS_TYPE": 0, "CLASSIFICATION_TYPE": "U", "NORAD_CAT_ID": 30811, "ELEMENT_SET_NO": 999, "REV_AT_EPOCH": 92994, "BSTAR": 0.0016486315, "MEAN_MOTION_DOT": 1.603e-05, "MEAN_MOTION_DDOT": 0}, "tle": {"line1": "1 30811U 99025AUV 25356.08888237  .00001603  00000+0  16486-2 0  9999", "line2": "2 30811  98.7814  34.5277 0277978  21.7209 339.5458 13.61870689929940"}}, "geometry": {"type": "Point", "coordinates": [17.226258613160415, 64.41725149436611]}}, {"type": "Feature", "properties": {"norad_id": 30814, "name": "FENGYUN 1C DEB", "group": "fengyun-1c-debris", "lat": 75.02713301228026, "lon": -61.49077496301038, "alt_km": 694.3208633535078, "timestamp": "2025-12-23T18:59:32.246108+00:00", "meta": {"OBJECT_NAME": "FENGYUN 1C DEB", "OBJECT_ID": "1999-025AUY", "EPOCH": "2025-12-22T14:57:46.831680", "MEAN_MOTION": 14.6065623, "ECCENTRICITY": 0.0030445, "INCLINATION": 99.0824, "RA_OF_ASC_NODE": 333.9657, "ARG_OF_PERICENTER": 201.078, "MEAN_ANOMALY": 219.6161, "EPHEMERIS_TYPE": 0, "CLASSIFICATION_TYPE": "U", "NORAD_CAT_ID": 30814, "ELEMENT_SET_NO": 999, "REV_AT_EPOCH": 97886, "BSTAR": 0.0026505907, "MEAN_MOTION_DOT": 0.00012954, "MEAN_MOTION_DDOT": 0}, "tle": {"line1": "1 30814U 99025AUY 25356.62345870  .00012954  00000+0  26506-2 0  9998", "line2": "2 30814  99.0824 333.9657 0030445 201.0780 219.6161 14.60656230978867"}}, "geometry": {"type": "Point", "coordinates": [-61.49077496301038, 75.02713301228026]}}]}